NORAD_CAT_ID,OBJECT_NAME,OBJECT_TYPE,EPOCH,MEAN_MOTION,ECCENTRICITY,INCLINATION,RA_OF_ASC_NODE,ARG_OF_PERICENTER,MEAN_ANOMALY,BSTAR,MEAN_MOTION_DOT,MEAN_MOTION_DDOT,TLE_LINE0,TLE_LINE1,TLE_LINE2,SEMIMAJOR_AXIS,PERIOD,APOGEE,PERIGEE,DECAYED
49139.0,STARLINK-3057,PAYLOAD,2023-12-27 13:23:02,14.98329598,0.0003624,70.0002,119.4271,270.6841,89.3902,0.00012919,1.449e-05,0.0,0 STARLINK-3057,1 49139U 21082K   23361.55766996  .00001449  00000-0  12919-3 0  9990,2 49139  70.0002 119.4271 0003624 270.6841  89.3902 14.98329598126665,6950.194,96.107,574.578,569.54,0.0
49139.0,STARLINK-3057,PAYLOAD,2023-12-27 18:11:26,14.98336791,0.0003741,69.9999,118.9224,269.5659,90.5072,0.00015775,1.79e-05,0.0,0 STARLINK-3057,1 49139U 21082K   23361.75794396  .00001790  00000-0  15775-3 0  9999,2 49139  69.9999 118.9224 0003741 269.5659  90.5072 14.98336791126691,6950.172,96.107,574.637,569.437,0.0
49139.0,STARLINK-3057,PAYLOAD,2023-12-28 11:48:55,14.98361546,0.0002919,70.0011,117.0712,272.5112,87.5713,-0.00059348,-7.173e-05,0.0,0 STARLINK-3057,1 49139U 21082K   23362.49231002 -.00007173  00000-0 -59348-3 0  9998,2 49139  70.0011 117.0712 0002919 272.5112  87.5713 14.98361546126802,6950.095,96.105,573.989,569.932,0.0
49139.0,STARLINK-3057,PAYLOAD,2023-12-28 18:13:27,14.98356008,0.0003258,70.0009,116.3979,278.9838,81.0952,-0.00051872,-6.281e-05,0.0,0 STARLINK-3057,1 49139U 21082K   23362.75934768 -.00006281  00000-0 -51872-3 0  9999,2 49139  70.0009 116.3979 0003258 278.9838  81.0952 14.98356008126843,6950.112,96.105,574.242,569.713,0.0
49139.0,STARLINK-3057,PAYLOAD,2023-12-29 11:50:56,14.98330471,0.0003305,70.0006,114.5465,265.2525,94.8257,-1.032e-05,-2.16e-06,0.0,0 STARLINK-3057,1 49139U 21082K   23363.49371243 -.00000216  00000-0 -10320-4 0  9990,2 49139  70.0006 114.5465 0003305 265.2525  94.8257 14.98330471126953,6950.191,96.107,574.353,569.759,0.0
49139.0,STARLINK-3057,PAYLOAD,2023-12-29 16:39:20,14.98331902,0.0003282,70.0006,114.0415,264.6668,95.4116,6.4338e-06,-1.6e-07,0.0,0 STARLINK-3057,1 49139U 21082K   23363.69399081 -.00000016  00000-0  64338-5 0  9998,2 49139  70.0006 114.0415 0003282 264.6668  95.4116 14.98331902126982,6950.187,96.107,574.333,569.771,0.0
49139.0,STARLINK-3057,PAYLOAD,2023-12-30 11:52:57,14.98328403,0.0003412,70.0,112.0212,264.6832,95.3938,6.9584e-05,7.37e-06,0.0,0 STARLINK-3057,1 49139U 21082K   23364.49511106  .00000737  00000-0  69584-4 0  9997,2 49139  70.0000 112.0212 0003412 264.6832  95.3938 14.98328403127105,6950.198,96.107,574.434,569.691,0.0
49139.0,STARLINK-3057,PAYLOAD,2023-12-30 13:29:05,14.9832789,0.0003421,69.9999,111.8529,264.5215,95.5554,6.2114e-05,6.48e-06,0.0,0 STARLINK-3057,1 49139U 21082K   23364.56187168  .00000648  00000-0  62114-4 0  9995,2 49139  69.9999 111.8529 0003421 264.5215  95.5554 14.98327890127117,6950.199,96.107,574.442,569.687,0.0
49139.0,STARLINK-3057,PAYLOAD,2023-12-30 16:41:21,14.98329958,0.0003396,70.0,111.5163,264.032,96.0452,8.3443e-05,9.03e-06,0.0,0 STARLINK-3057,1 49139U 21082K   23364.69538988  .00000903  00000-0  83443-4 0  9991,2 49139  70.0000 111.5163 0003396 264.0320  96.0452 14.98329958127139,6950.193,96.107,574.418,569.698,0.0
49139.0,STARLINK-3057,PAYLOAD,2023-12-31 11:54:58,14.98326987,0.0003327,70.0003,109.4967,261.3987,98.6796,3.399e-07,-8.9e-07,0.0,0 STARLINK-3057,1 49139U 21082K   23365.49651445 -.00000089  00000-0  33990-6 0  9994,2 49139  70.0003 109.4967 0003327 261.3987  98.6796 14.98326987127254,6950.202,96.107,574.38,569.755,0.0
49139.0,STARLINK-3057,PAYLOAD,2023-12-31 16:43:23,14.98327553,0.0003313,70.0003,108.9916,260.6979,99.3805,5.8478e-06,-2.3e-07,0.0,0 STARLINK-3057,1 49139U 21082K   23365.69679410 -.00000023  00000-0  58478-5 0  9993,2 49139  70.0003 108.9916 0003313 260.6979  99.3805 14.98327553127282,6950.2,96.107,574.368,569.763,0.0
49139.0,STARLINK-3057,PAYLOAD,2024-01-01 11:56:59,14.98333026,0.0003364,70.0001,106.9721,262.6204,97.4572,4.9341e-05,4.96e-06,0.0,0 STARLINK-3057,1 49139U 21082K   24001.49790884  .00000496  00000-0  49341-4 0  9999,2 49139  70.0001 106.9721 0003364 262.6204  97.4572 14.98333026127407,6950.184,96.107,574.387,569.71,0.0
49139.0,STARLINK-3057,PAYLOAD,2024-01-01 13:33:07,14.98333411,0.0003341,70.0001,106.8039,261.8564,98.2216,5.4266e-05,5.55e-06,0.0,0 STARLINK-3057,1 49139U 21082K   24001.56466823  .00000555  00000-0  54266-4 0  9998,2 49139  70.0001 106.8039 0003341 261.8564  98.2216 14.98333411127416,6950.182,96.107,574.369,569.725,0.0
49139.0,STARLINK-3057,PAYLOAD,2024-01-01 16:45:23,14.98334797,0.0003335,70.0002,106.4674,262.231,97.8471,6.8009e-05,7.19e-06,0.0,0 STARLINK-3057,1 49139U 21082K   24001.69818668  .00000719  00000-0  68009-4 0  9992,2 49139  70.0002 106.4674 0003335 262.2310  97.8471 14.98334797127433,6950.178,96.107,574.361,569.725,0.0
49139.0,STARLINK-3057,PAYLOAD,2024-01-02 05:34:25,14.98356571,0.0003378,69.9999,105.1202,268.129,91.9482,0.00033611,3.922e-05,0.0,0 STARLINK-3057,1 49139U 21082K   24002.23223977  .00003922  00000-0  33611-3 0  9995,2 49139  69.9999 105.1202 0003378 268.1290  91.9482 14.98356571127517,6950.111,96.105,574.323,569.628,0.0
49139.0,STARLINK-3057,PAYLOAD,2024-01-02 11:59:00,14.9831435,0.00032,70.0,104.4471,268.6169,91.4623,-0.00014655,-1.84e-05,0.0,0 STARLINK-3057,1 49139U 21082K   24002.49931595 -.00001840  00000-0 -14655-3 0  9991,2 49139  70.0000 104.4471 0003200 268.6169  91.4623 14.98314350127552,6950.241,96.108,574.33,569.882,0.0
49139.0,STARLINK-3057,PAYLOAD,2024-01-02 13:35:08,14.9831987,0.0003234,69.9998,104.2784,265.7565,94.3225,-9.3878e-05,-1.213e-05,0.0,0 STARLINK-3057,1 49139U 21082K   24002.56607096 -.00001213  00000-0 -93878-4 0  9994,2 49139  69.9998 104.2784 0003234 265.7565  94.3225 14.98319870127568,6950.224,96.108,574.337,569.842,0.0
49139.0,STARLINK-3057,PAYLOAD,2024-01-02 16:47:24,14.98320883,0.0003219,70.0,103.9421,266.2504,93.8287,-7.6307e-05,-1.003e-05,0.0,0 STARLINK-3057,1 49139U 21082K   24002.69959058 -.00001003  00000-0 -76307-4 0  9991,2 49139  70.0000 103.9421 0003219 266.2504  93.8287 14.98320883127581,6950.221,96.108,574.323,569.849,0.0
49139.0,STARLINK-3057,PAYLOAD,2024-01-03 12:01:01,14.98355323,0.0002798,70.0005,101.922,262.0695,98.0147,-0.00083853,-0.0001009,0.0,0 STARLINK-3057,1 49139U 21082K   24003.50071351 -.00010090  00000-0 -83853-3 0  9992,2 49139  70.0005 101.9220 0002798 262.0695  98.0147 14.98355323127700,6950.115,96.105,573.924,570.035,0.0
49139.0,STARLINK-3057,PAYLOAD,2024-01-03 13:37:09,14.98353187,0.0002745,70.0006,101.7535,261.2762,98.8086,-0.0007915,-9.53e-05,0.0,0 STARLINK-3057,1 49139U 21082K   24003.56747272 -.00009530  00000-0 -79150-3 0  9992,2 49139  70.0006 101.7535 0002745 261.2762  98.8086 14.98353187127713,6950.121,96.106,573.894,570.078,0.0
49139.0,STARLINK-3057,PAYLOAD,2024-01-03 16:49:25,14.98352432,0.000275,70.0006,101.417,263.7881,96.2965,-0.00075952,-9.149e-05,0.0,0 STARLINK-3057,1 49139U 21082K   24003.70099099 -.00009149  00000-0 -75952-3 0  9997,2 49139  70.0006 101.4170 0002750 263.7881  96.2965 14.98352432127732,6950.124,96.106,573.9,570.077,0.0
49139.0,STARLINK-3057,PAYLOAD,2024-01-04 12:03:01,14.98340698,0.0003269,69.9997,99.3961,275.7991,84.2795,-0.00021367,-2.642e-05,0.0,0 STARLINK-3057,1 49139U 21082K   24004.50210556 -.00002642  00000-0 -21367-3 0  9991,2 49139  69.9997  99.3961 0003269 275.7991  84.2795 14.98340698127854,6950.16,96.106,574.297,569.753,0.0
49139.0,STARLINK-3057,PAYLOAD,2024-01-04 13:39:09,14.9834148,0.0003128,70.0002,99.2281,274.0872,85.9929,-0.00021469,-2.654e-05,0.0,0 STARLINK-3057,1 49139U 21082K   24004.56886483 -.00002654  00000-0 -21469-3 0  9991,2 49139  70.0002  99.2281 0003128 274.0872  85.9929 14.98341480127860,6950.157,96.106,574.196,569.848,0.0
49139.0,STARLINK-3057,PAYLOAD,2024-01-04 15:15:17,14.98343405,0.0003263,69.9996,99.0597,273.4148,86.6638,-0.0001618,-2.024e-05,0.0,0 STARLINK-3057,1 49139U 21082K   24004.63562147 -.00002024  00000-0 -16180-3 0  9992,2 49139  69.9996  99.0597 0003263 273.4148  86.6638 14.98343405127871,6950.151,96.106,574.284,569.749,0.0
49139.0,STARLINK-3057,PAYLOAD,2024-01-05 12:05:03,14.98321934,0.0002968,69.9999,96.8722,270.1058,89.9761,0.00019264,2.206e-05,0.0,0 STARLINK-3057,1 49139U 21082K   24005.50351132  .00002206  00000-0  19264-3 0  9995,2 49139  69.9999  96.8722 0002968 270.1058  89.9761 14.98321934128006,6950.218,96.108,574.146,570.02,0.0
49139.0,STARLINK-3057,PAYLOAD,2024-01-05 13:41:11,14.98324247,0.0003012,69.9997,96.7034,270.9793,89.1021,0.00018856,2.157e-05,0.0,0 STARLINK-3057,1 49139U 21082K   24005.57027019  .00002157  00000-0  18856-3 0  9997,2 49139  69.9997  96.7034 0003012 270.9793  89.1021 14.98324247128016,6950.211,96.107,574.169,569.982,0.0
49139.0,STARLINK-3057,PAYLOAD,2024-01-05 16:53:27,14.98326323,0.0002976,69.9998,96.3668,268.6207,91.4611,0.00020685,2.376e-05,0.0,0 STARLINK-3057,1 49139U 21082K   24005.70378878  .00002376  00000-0  20685-3 0  9990,2 49139  69.9998  96.3668 0002976 268.6207  91.4611 14.98326323128038,6950.204,96.107,574.138,570.001,0.0
49139.0,STARLINK-3057,PAYLOAD,2024-01-06 12:07:04,14.98325767,0.0002749,70.0004,94.3479,267.0821,93.0023,-5.2548e-05,-7.2e-06,0.0,0 STARLINK-3057,1 49139U 21082K   24006.50491026 -.00000720  00000-0 -52548-4 0  9997,2 49139  70.0004  94.3479 0002749 267.0821  93.0023 14.98325767128159,6950.206,96.107,573.982,570.16,0.0
49139.0,STARLINK-3057,PAYLOAD,2024-01-06 15:19:20,14.98323495,0.0002728,70.0003,94.0109,267.0473,93.0373,-7.9989e-05,-1.047e-05,0.0,0 STARLINK-3057,1 49139U 21082K   24006.63843292 -.00001047  00000-0 -79989-4 0  9998,2 49139  70.0003  94.0109 0002728 267.0473  93.0373 14.98323495128171,6950.213,96.107,573.974,570.182,0.0
49139.0,STARLINK-3057,PAYLOAD,2024-01-07 12:09:05,14.98326073,0.0002791,70.0002,91.8226,267.0725,93.0115,-6.7343e-05,-8.96e-06,0.0,0 STARLINK-3057,1 49139U 21082K   24007.50631185 -.00000896  00000-0 -67343-4 0  9993,2 49139  70.0002  91.8226 0002791 267.0725  93.0115 14.98326073128309,6950.205,96.107,574.01,570.13,0.0
